IRIDIUM 119             
1 42959U 17061E   24366.65335499  .00000793  00000+0  27594-3 0  9997
2 42959  86.3964 247.7439 0001800  78.1412 281.9985 14.34216328378481
IRIDIUM 107             
1 42960U 17061F   24366.74215946  .00000170  00000+0  53730-4 0  9994
2 42960  86.3967 247.7249 0001551  92.3664 267.7709 14.34217356378506
IRIDIUM 132             
1 42961U 17061G   24366.74850231  .00000298  00000+0  99360-4 0  9997
2 42961  86.3962 247.7055 0001911  89.0427 271.0988 14.34218164378502
IRIDIUM 136             
1 42962U 17061H   24366.57090965  .00000047  00000+0  95957-5 0  9990
2 42962  86.3966 247.7837 0001650  79.5066 280.6315 14.34217915378499
IRIDIUM 139             
1 42963U 17061J   24366.78655647  .00000680  00000+0  23576-3 0  9997
2 42963  86.3970 247.7469 0001705  86.1762 273.9628 14.34220133378537
IRIDIUM 125             
1 42964U 17061K   24366.77387048  .00000546  00000+0  18774-3 0  9999
2 42964  86.3969 247.8036 0001491  69.2922 290.8433 14.34219859378545
IRIDIUM 135             
1 43070U 17083A   24366.81776614 -.00000059  00000+0 -28011-4 0  9995
2 43070  86.3994 184.5084 0002084  92.0787 268.0647 14.34217609367840
IRIDIUM 138             
1 43071U 17083B   24366.84313666  .00000073  00000+0  19024-4 0  9991
2 43071  86.3978 184.1905 0001905  71.2292 288.9110 14.34218197367830
